HAIYANG 2A              
1 37781U 11043A   15080.86405011  .00000018  00000-0  60418-4 0  9996
2 37781  99.3470  92.9778 0001433  61.3608 298.7747 13.79299302181196
RASAT                   
1 37791U 11044D   15081.15912274  .00000549  00000-0  11296-3 0  9993
2 37791  98.1612 170.1607 0022197 170.6757 189.4877 14.64289818192043
MEGHA-TROPIQUES         
1 37838U 11058A   15081.12789057  .00000414  00000-0  84674-4 0  9990
2 37838  19.9783  42.4498 0010432  94.1050 266.0547 14.09702545177538
SRMSAT                  
1 37841U 11058D   15081.15260314  .00000420  00000-0  86155-4 0  9990
2 37841  19.9725  35.0642 0012095  97.0154  21.1588 14.10454395177647
YAOGAN 13               
1 37941U 11072A   15081.09438090  .00009514  00000-0  46370-3 0  9995
2 37941  97.4510   8.8692 0002647  78.0146  46.8116 15.18542309183556
PLEIADES 1A             
1 38012U 11076F   15081.20075968  .00000501  00000-0  11759-3 0  9993
2 38012  98.2002 157.0955 0001221  75.8112 284.3241 14.58554254173625
ZIYUAN 1-02C (ZY 1-02C) 
1 38038U 11079A   15081.13367514  .00000351  00000-0  13718-3 0  9997
2 38038  98.4360 156.1303 0001479  77.3208 282.8159 14.35404526170143
ZIYUAN 3 (ZY 3)         
1 38046U 12001A   15081.16530194  .00009297  00000-0  41862-3 0  9990
2 38046  97.3736 157.6509 0006093 107.1792 336.4590 15.21272556177580
RISAT 1                 
1 38248U 12017A   15081.12696201  .00001855  00000-0  12152-3 0  9991
2 38248  97.5616  89.2977 0003200   4.2420  82.3844 15.08936299159871
ARIRANG-3 (KOMPSAT-3)   
1 38338U 12025B   15081.16547552  .00000722  00000-0  15348-3 0  9990
2 38338  98.1209  20.2905 0012164   6.6416 353.4948 14.61907853151705
KANOPUS-V 1             
1 38707U 12039A   15081.19941753  .00003879  00000-0  18644-3 0  9997
2 38707  97.4731 357.3908 0002254  72.3542  66.3949 15.19407275147807
SPOT 6                  
1 38755U 12047A   15081.21618956  .00000481  00000-0  11326-3 0  9994
2 38755  98.1619 149.4063 0001124  79.1724 280.9624 14.58565345134701
PLEIADES 1B             
1 39019U 12068A   15081.09796079  .00000475  00000-0  11193-3 0  9995
2 39019  98.1700 156.9596 0001280  85.1544 274.9810 14.58565697122460
GOKTURK 2               
1 39030U 12073A   15081.16152063  .00000524  00000-0  10579-3 0  9993
2 39030  98.0807 337.7709 0014213 187.2305 172.8711 14.65340437120548
LANDSAT 8               
1 39084U 13008A   15081.09794219  .00000602  00000-0  14355-3 0  9991
2 39084  98.1860 152.2476 0000713  79.9906 280.1378 14.57122966111922
SARAL                   
1 39086U 13009A   15080.55754792  .00000105  00000-0  54965-4 0  9996
2 39086  98.5436 269.6472 0000745 120.8383 239.2968 14.32253840107931
GAOFEN 1                
1 39150U 13018A   15081.14204787  .00001027  00000-0  15453-3 0  9990
2 39150  98.0051 163.5118 0018539 166.5768 193.5956 14.76487725102533
VNREDSAT 1              
1 39160U 13021B   15081.17605864  .00000847  00000-0  17498-3 0  9999
2 39160  98.1551 158.8746 0001537  75.0403 285.0987 14.62881090100003
ARIRANG-5 (KOMPSAT-5)   
1 39227U 13042A   15081.10317162 -.00001361  00000-0 -92891-4 0  9995
2 39227  97.5992 268.1121 0005021 180.9325 328.2804 15.04513017 86685
SKYSAT-1                
1 39418U 13066C   15081.15074256  .00002512  00000-0  22175-3 0  9996
2 39418  97.7597 161.0605 0022882 144.8219 215.4533 14.97098344 72619
DUBAISAT-2              
1 39419U 13066D   15081.16796276  .00002012  00000-0  20093-3 0  9993
2 39419  97.7567 157.9306 0015039 110.1236 250.1650 14.92533764 72431
GPM-CORE                
1 39574U 14009C   15080.58139877  .00021987  00000-0  32220-3 0  9993
2 39574  65.0190 184.0223 0010723 258.4352 101.5595 15.55509338 60188
SENTINEL-1A             
1 39634U 14016A   15081.13282609  .00000047  00000-0  19729-4 0  9996
2 39634  98.1813  89.4429 0001352  80.3975 279.7382 14.59199088 51396
KAZEOSAT 1              
1 39731U 14024A   15081.11788519  .00000251  00000-0  89892-4 0  9997
2 39731  98.4911 156.8390 0001113  99.6888 260.4438 14.41991043 46994
ALOS-2                  
1 39766U 14029A   15081.16338189  .00002300  00000-0  31478-3 0  9992
2 39766  97.9189 179.2636 0001903 109.1745 250.9724 14.79466419 44659
KAZEOSAT 2              
1 40010U 14033A   15081.13523697  .00000878  00000-0  11678-3 0  9996
2 40010  97.9629 339.6676 0019899  61.2772 299.0455 14.82100667 40777
HODOYOSHI-4             
1 40011U 14033B   15081.15080401  .00001753  00000-0  23691-3 0  9991
2 40011  97.9607 338.6361 0028691  47.5523 312.8133 14.80064465 40719
DEIMOS-2                
1 40013U 14033D   15081.10924201  .00002039  00000-0  25242-3 0  9995
2 40013  97.9461 340.3501 0002572  91.3048 268.8474 14.83837712 40831
HODOYOSHI-3             
1 40015U 14033F   15081.14429336  .00001364  00000-0  19640-3 0  9995
2 40015  97.9582 337.4885 0038649  42.3262 318.0942 14.77482771 40659
SPOT 7                  
1 40053U 14034A   15081.18266477 -.00000045  00000-0  00000+0 0  9999
2 40053  98.1686 149.6300 0001080 104.1102 256.0230 14.58575230 38631
SKYSAT-2                
1 40072U 14037D   15081.15690014  .00001180  00000-0  16209-3 0  9990
2 40072  98.3647 149.0489 0007054 147.9200 212.2469 14.80352306 37925
WORLDVIEW-3 (WV-3)      
1 40115U 14048A   15081.14729987  .00001429  00000-0  17392-3 0  9991
2 40115  97.9602 156.3537 0000877 144.0027 216.1255 14.85015370 32704
YAOGAN 21               
1 40143U 14053A   15081.08209436  .00012158  00000-0  47444-3 0  9995
2 40143  97.3910 157.6443 0010782 230.8798 190.5961 15.26010330 29720
YAOGAN 22               
1 40275U 14063A   15081.13924633 -.00000044  00000-0  00000+0 0  9996
2 40275 100.3341 200.1942 0006788 136.2601 223.9054 13.15291032 20091
ASNARO                  
1 40298U 14070A   15081.22461823  .00013124  00000-0  61748-3 0  9998
2 40298  97.4637 164.2862 0001555 108.7376 335.9230 15.19685617 20644
HODOYOSHI-1             
1 40299U 14070B   15081.12479916  .00004533  00000-0  22262-3 0  9992
2 40299  97.4599 163.7593 0014749  78.6969   8.8639 15.18476184 20600
CHUBUSAT-1              
1 40300U 14070C   15081.16707566  .00007705  00000-0  39405-3 0  9995
2 40300  97.4582 163.3509 0024096  77.9763 338.5944 15.16667114 20580
QSAT-EOS                
1 40301U 14070D   15081.15346278  .00014074  00000-0  73906-3 0  9995
2 40301  97.4548 162.8615 0034686  77.8347 339.8015 15.15291776 20554
TSUBAME                 
1 40302U 14070E   15081.18728753  .00008412  00000-0  48176-3 0  9991
2 40302  97.4531 162.2975 0045602  79.1736 281.4513 15.11967105 20521
YAOGAN 23               
1 40305U 14071A   15081.13037528  .00009290  00000-0  45259-3 0  9997
2 40305  97.3481  27.3831 0003995  87.3331  31.9606 15.18555093 19323
YAOGAN 24               
1 40310U 14072A   15081.13581169  .00001174  00000-0  17544-3 0  9998
2 40310  97.9186 201.1949 0017071 182.7789 177.3325 14.76516087 17971
CBERS-4                 
1 40336U 14079A   15081.15256751  .00000167  00000-0  73548-4 0  9999
2 40336  98.5319 157.3259 0001240  58.1813 301.9510 14.35423576 15058
RESURS P2               
1 40360U 14087A   15081.11723647  .00005738  00000-0  17745-3 0  9999
2 40360  97.2862 176.6978 0006639 144.0315 335.1487 15.33868488 13093
YAOGAN 26               
1 40362U 14088A   15081.16260243  .00013725  00000-0  51655-3 0  9998
2 40362  97.4260 157.5480 0002628 331.2828 112.8737 15.27235930 12964
SMAP                    
1 40376U 15003A   15080.58647348  .00000670  00000-0  13864-3 0  9996
2 40376  98.1256  89.2746 0001520  73.9388 286.1974 14.63408763  7179
